QIANFAN-9               
1 60387U 24140J   25365.86710483  .00000171  00000+0  24553-3 0  9993
2 60387  88.9780 297.3596 0017033 136.6188 223.6307 13.50986104 69919
QIANFAN-10              
1 60388U 24140K   25365.87128011  .00000184  00000+0  26610-3 0  9995
2 60388  88.9790 296.7082 0016089 115.0465 245.2358 13.50986520 70047
QIANFAN-11              
1 60389U 24140L   25365.90842054  .00000167  00000+0  23957-3 0  9992
2 60389  88.9715 297.2773 0015110 135.5107 224.7260 13.50982583 69702
QIANFAN-12              
1 60390U 24140M   25365.85483497  .00000185  00000+0  26699-3 0  9996
2 60390  88.9759 297.3346 0013669 142.8032 217.4069 13.50983583 69824
QIANFAN-13              
1 60391U 24140N   25365.90008784  .00000166  00000+0  23844-3 0  9993
2 60391  88.9771 297.4322 0013421 145.1216 215.0817 13.50984062 69851
QIANFAN-14              
1 60392U 24140P   25365.85063525  .00000193  00000+0  28027-3 0  9990
2 60392  88.9750 297.3309 0017065 146.8734 213.3490 13.50983547 69859
QIANFAN-15              
1 60393U 24140Q   25365.85893037  .00000179  00000+0  25820-3 0  9992
2 60393  88.9773 297.2910 0013313 131.9522 228.2766 13.50982326 69848
QIANFAN-16              
1 60394U 24140R   25365.84663231  .00000204  00000+0  29710-3 0  9994
2 60394  88.9776 297.4130 0014913 149.8454 210.3559 13.50987608 69757
